ONEWEB-0427             
1 50499U 21132AG  25008.89241357  .00000043  00000+0  76573-4 0  9998
2 50499  87.9093  79.7496 0001998  97.7831 262.3528 13.18688095152510
ONEWEB-0429             
1 50500U 21132AH  25008.87976343  .00000101  00000+0  22464-3 0  9993
2 50500  87.9098  79.7708 0001662 106.7357 253.3958 13.18688735152480
ONEWEB-0430             
1 50501U 21132AJ  25008.71694536  .00000014  00000+0  37088-5 0  9991
2 50501  87.9094  79.8010 0002023 112.0995 248.0352 13.18687445152503
ONEWEB-0432             
1 50502U 21132AK  25008.90030999  .00000125  00000+0  28303-3 0  9991
2 50502  87.9092  79.7548 0002855  99.6863 260.4592 13.18689145152484
ONEWEB-0440             
1 50503U 21132AL  25008.88766101 -.00000208  00000+0 -56135-3 0  9998
2 50503  87.9095  79.7522 0001332  99.5230 260.6052 13.18686357152470
ONEWEB-0450             
1 50504U 21132AM  25008.88148385  .00000064  00000+0  12985-3 0  9990
2 50504  87.9096  79.7822 0001689 114.8837 245.2471 13.18687802152508
ONEWEB-0410             
1 51622U 22012A   25008.80208595  .00000031  00000+0  46732-4 0  9994
2 51622  87.9100 110.3188 0002509  71.9426 288.1979 13.17650366144641
ONEWEB-0411             
1 51623U 22012B   25008.89512697  .00000551  00000+0  15420-2 0  9990
2 51623  87.8915 140.7107 0002001 120.0739 240.0586 13.10373072140627
